H1 CPF  1  HTS 2022  4 16 12  6061 larets           NONE
H2  0304206 5557    27944 2022 04 16  0  0  0 2022 04 21  0  0  0   180 1 1  0 0 0
H5  0.0560 
H9 
10 0 59686  10440.00000  0   -2006068.313    -554412.893    6729668.254
10 0 59686  10620.00000  0   -3230644.744    -174811.603    6258086.334
10 0 59686  10800.00000  0   -4326818.562     241634.597    5556357.423
10 0 59686  10980.00000  0   -5253781.974     675811.260    4650198.361
10 0 59686  11160.00000  0   -5977427.031    1106963.016    3572896.149
10 0 59686  11340.00000  0   -6471665.261    1513655.743    2364088.966
10 0 59686  11520.00000  0   -6719428.423    1874800.539    1068289.607
10 0 59686  11700.00000  0   -6713299.865    2170688.422    -266798.446
10 0 59686  11880.00000  0   -6455733.566    2383980.135   -1592101.942
10 0 59686  12060.00000  0   -5958850.819    2500596.168   -2859044.959
10 0 59686  12240.00000  0   -5243831.184    2510463.327   -4021378.435
10 0 59686  12420.00000  0   -4339934.163    2408076.007   -5036884.344
10 0 59686  12600.00000  0   -3283221.158    2192849.885   -5868880.806
10 0 59686  12780.00000  0   -2115055.884    1869261.111   -6487481.766
10 0 59686  12960.00000  0    -880454.898    1446770.333   -6870588.235
10 0 59686  13140.00000  0     373642.690     939538.433   -7004590.025
10 0 59686  13320.00000  0    1600119.471     365951.161   -6884784.176
10 0 59686  13500.00000  0    2753399.821    -252034.255   -6515515.711
10 0 59686  13680.00000  0    3791097.284    -889704.753   -5910030.540
10 0 59686  13860.00000  0    4675542.026   -1520544.522   -5090047.133
10 0 59686  14040.00000  0    5375149.000   -2117301.940   -4085052.872
10 0 59686  14220.00000  0    5865581.111   -2653136.973   -2931322.735
10 0 59686  14400.00000  0    6130655.172   -3102801.729   -1670674.064
10 0 59686  14580.00000  0    6162941.819   -3443802.048    -348986.533
10 0 59686  14760.00000  0    5964022.018   -3657483.001     985463.315
10 0 59686  14940.00000  0    5544377.330   -3729981.515    2283791.981
10 0 59686  15120.00000  0    4922904.632   -3652988.447    3498348.157
10 0 59686  15300.00000  0    4126078.202   -3424274.966    4584507.820
10 0 59686  15480.00000  0    3186808.663   -3047959.037    5502349.976
10 0 59686  15660.00000  0    2143049.997   -2534496.895    6218143.186
10 0 59686  15840.00000  0    1036229.686   -1900399.005    6705582.678
10 0 59686  16020.00000  0     -90425.887   -1167688.681    6946741.735
10 0 59686  16200.00000  0   -1193599.872    -363123.235    6932713.695
10 0 59686  16380.00000  0   -2231562.636     482793.767    6663933.438
10 0 59686  16560.00000  0   -3165764.223    1336976.549    6150173.757
10 0 59686  16740.00000  0   -3962289.408    2165058.862    5410213.929
10 0 59686  16920.00000  0   -4593126.864    2932789.745    4471184.211
10 0 59686  17100.00000  0   -5037202.064    3607471.545    3367591.206
10 0 59686  17280.00000  0   -5281123.789    4159374.656    2140049.885
10 0 59686  17460.00000  0   -5319609.758    4563066.376     833766.129
10 0 59686  17640.00000  0   -5155565.359    4798582.086    -503178.485
10 0 59686  17820.00000  0   -4799809.283    4852372.258   -1821660.181
10 0 59686  18000.00000  0   -4270460.175    4717979.189   -3073383.957
10 0 59686  18180.00000  0   -3592018.541    4396401.611   -4212697.790
10 0 59686  18360.00000  0   -2794204.325    3896138.528   -5198262.456
10 0 59686  18540.00000  0   -1910625.185    3232926.995   -5994511.808
10 0 59686  18720.00000  0    -977345.743    2429198.904   -6572869.632
10 0 59686  18900.00000  0     -31417.071    1513281.248   -6912691.804
10 0 59686  19080.00000  0     890569.006     518383.113   -7001919.501
10 0 59686  19260.00000  0    1753856.227    -518593.882   -6837450.261
10 0 59686  19440.00000  0    2526794.794   -1558390.926   -6425222.293
10 0 59686  19620.00000  0    3181968.752   -2560832.937   -5780016.779
10 0 59686  19800.00000  0    3697156.468   -3486340.369   -4924986.004
10 0 59686  19980.00000  0    4056095.491   -4297475.361   -3890897.082
10 0 59686  20160.00000  0    4249015.930   -4960455.789   -2715099.689
10 0 59686  20340.00000  0    4272927.496   -5446584.196   -1440241.781
10 0 59686  20520.00000  0    4131634.419   -5733524.909    -112753.276
10 0 59686  20700.00000  0    3835466.317   -5806354.431    1218849.545
10 0 59686  20880.00000  0    3400732.485   -5658324.983    2505769.924
10 0 59686  21060.00000  0    2848920.422   -5291290.607    3700767.580
10 0 59686  21240.00000  0    2205679.810   -4715773.436    4759936.895
10 0 59686  21420.00000  0    1499649.240   -3950666.173    5644352.885
10 0 59686  21600.00000  0     761183.110   -3022584.523    6321517.404
10 0 59686  21780.00000  0      21038.701   -1964901.434    6766547.617
10 0 59686  21960.00000  0    -690910.869    -816514.802    6963070.060
10 0 59686  22140.00000  0   -1346886.141     379604.225    6903810.333
10 0 59686  22320.00000  0   -1922292.758    1578036.056    6590860.300
10 0 59686  22500.00000  0   -2396655.876    2732651.418    6035614.950
10 0 59686  22680.00000  0   -2754365.114    3798406.411    5258381.276
10 0 59686  22860.00000  0   -2985205.313    4733133.056    4287665.440
10 0 59686  23040.00000  0   -3084653.170    5499257.696    3159147.145
10 0 59686  23220.00000  0   -3053921.402    6065368.726    1914363.769
10 0 59686  23400.00000  0   -2899747.116    6407552.839     599151.693
10 0 59686  23580.00000  0   -2633933.811    6510434.160    -738091.431
10 0 59686  23760.00000  0   -2272671.425    6367860.204   -2048253.890
10 0 59686  23940.00000  0   -1835667.006    5983186.006   -3283382.644
10 0 59686  24120.00000  0   -1345136.481    5369147.059   -4398471.611
10 0 59686  24300.00000  0    -824724.800    4547355.190   -5353095.262
10 0 59686  24480.00000  0    -298408.051    3547453.251   -6112831.964
10 0 59686  24660.00000  0     210573.601    2405976.701   -6650438.026
10 0 59686  24840.00000  0     680704.218    1164976.455   -6946739.179
10 0 59686  25020.00000  0    1093063.636    -129531.337   -6991235.429
10 0 59686  25200.00000  0    1432057.705   -1429242.083   -6782419.678
10 0 59686  25380.00000  0    1685985.508   -2685314.452   -6327809.027
10 0 59686  25560.00000  0    1847432.966   -3850149.767   -5643701.410
10 0 59686  25740.00000  0    1913482.761   -4879165.528   -4754654.753
10 0 59686  25920.00000  0    1885731.836   -5732499.014   -3692679.213
10 0 59686  26100.00000  0    1770114.259   -6376581.285   -2496162.326
10 0 59686  26280.00000  0    1576530.449   -6785518.508   -1208538.435
10 0 59686  26460.00000  0    1318296.957   -6942204.915     123263.492
10 0 59686  26640.00000  0    1011438.631   -6839103.385    1450539.917
10 0 59686  26820.00000  0     673855.808   -6478642.406    2724629.342
10 0 59686  27000.00000  0     324408.556   -5873197.366    3898748.894
10 0 59686  27180.00000  0     -18036.907   -5044651.775    4929756.498
10 0 59686  27360.00000  0    -335546.315   -4023569.848    5779763.903
10 0 59686  27540.00000  0    -611990.710   -2848018.861    6417540.059
10 0 59686  27720.00000  0    -833814.053   -1562097.793    6819648.888
10 0 59686  27900.00000  0    -990662.431    -214249.163    6971289.863
10 0 59686  28080.00000  0   -1075850.838    1144588.316    6866833.488
10 0 59686  28260.00000  0   -1086647.347    2462923.908    6510030.506
10 0 59686  28440.00000  0   -1024362.857    3690685.802    5913890.875
10 0 59686  28620.00000  0    -894246.039    4781153.007    5100233.994
10 0 59686  28800.00000  0    -705185.979    5692780.243    4098917.001
10 0 59686  28980.00000  0    -469234.323    6390842.879    2946753.549
10 0 59686  29160.00000  0    -200969.052    6848829.491    1686158.040
10 0 59686  29340.00000  0      83275.335    7049512.523     363545.553
10 0 59686  29520.00000  0     366273.090    6985625.720    -972434.295
10 0 59686  29700.00000  0     630817.291    6660120.028   -2272752.985
10 0 59686  29880.00000  0     860620.155    6085980.996   -3489857.628
10 0 59686  30060.00000  0    1041159.860    5285634.966   -4579436.810
10 0 59686  30240.00000  0    1160434.430    4289982.553   -5502026.987
10 0 59686  30420.00000  0    1209585.582    3137119.324   -6224396.306
10 0 59686  30600.00000  0    1183365.021    1870816.582   -6720667.924
10 0 59686  30780.00000  0    1080428.105     538835.102   -6973159.382
10 0 59686  30960.00000  0     903448.803    -808860.281   -6972937.389
10 0 59686  31140.00000  0     659052.782   -2121932.639   -6720084.412
10 0 59686  31320.00000  0     357573.774   -3351493.307   -6223682.495
10 0 59686  31500.00000  0      12639.242   -4451874.595   -5501524.710
10 0 59686  31680.00000  0    -359403.938   -5382306.684   -4579540.717
10 0 59686  31860.00000  0    -740206.098   -6108443.196   -3490945.432
10 0 59686  32040.00000  0   -1110251.660   -6603679.812   -2275116.225
10 0 59686  32220.00000  0   -1449782.178   -6850203.902    -976220.990
10 0 59686  32400.00000  0   -1739763.738   -6839717.958     358368.647
10 0 59686  32580.00000  0   -1962850.892   -6573785.108    1679820.626
10 0 59686  32760.00000  0   -2104297.577   -6063769.815    2939668.768
10 0 59686  32940.00000  0   -2152762.808   -5330367.197    4091641.198
10 0 59686  33120.00000  0   -2100965.430   -4402743.419    5093402.805
10 0 59686  33300.00000  0   -1946156.751   -3317337.575    5908137.057
10 0 59686  33480.00000  0   -1690387.450   -2116380.976    6505907.274
10 0 59686  33660.00000  0   -1340552.586    -846210.957    6864744.370
10 0 59686  33840.00000  0    -908219.967     444547.816    6971437.365
10 0 59686  34020.00000  0    -409248.910    1706864.942    6822006.438
10 0 59686  34200.00000  0     136795.251    2893183.519    6421854.939
10 0 59686  34380.00000  0     707411.398    3959233.765    5785589.407
10 0 59686  34560.00000  0    1278087.534    4865718.385    4936512.316
10 0 59686  34740.00000  0    1823349.346    5579810.267    3905793.503
99
